NORAD_CAT_ID,OBJECT_NAME,OBJECT_TYPE,EPOCH,MEAN_MOTION,ECCENTRICITY,INCLINATION,RA_OF_ASC_NODE,ARG_OF_PERICENTER,MEAN_ANOMALY,BSTAR,MEAN_MOTION_DOT,MEAN_MOTION_DDOT,TLE_LINE0,TLE_LINE1,TLE_LINE2,SEMIMAJOR_AXIS,PERIOD,APOGEE,PERIGEE,DECAYED
53965.0,STARLINK-4578,PAYLOAD,2023-07-17 09:37:56,15.08846145,0.0001105,53.2166,242.0825,85.3271,274.7848,7.2584e-05,8.68e-06,0.0,0 STARLINK-4578,1 53965U 22125B   23198.40134824  .00000868  00000-0  72584-4 0  9991,2 53965  53.2166 242.0825 0001105  85.3271 274.7848 15.08846145 43514,6917.862,95.437,540.491,538.962,0.0
53965.0,STARLINK-4578,PAYLOAD,2023-07-18 03:07:11,15.08834203,0.0001005,53.2166,238.8114,87.7579,272.3528,0.0001478,2.065e-05,0.0,0 STARLINK-4578,1 53965U 22125B   23199.12999332  .00002065  00000-0  14780-3 0  9998,2 53965  53.2166 238.8114 0001005  87.7579 272.3528 15.08834203 43627,6917.898,95.438,540.458,539.068,0.0
53965.0,STARLINK-4578,PAYLOAD,2023-07-19 10:54:54,15.0883607,0.0001222,53.2171,232.8652,93.8246,266.2886,8.8676e-06,-1.47e-06,0.0,0 STARLINK-4578,1 53965U 22125B   23200.45479854 -.00000147  00000-0  88676-5 0  9996,2 53965  53.2171 232.8652 0001222  93.8246 266.2886 15.08836070 43829,6917.892,95.438,540.603,538.912,0.0
53965.0,STARLINK-4578,PAYLOAD,2023-07-21 10:36:28,15.0883917,0.0001173,53.2168,223.944,94.4105,265.7021,9.4395e-05,1.215e-05,0.0,0 STARLINK-4578,1 53965U 22125B   23202.44199866  .00001215  00000-0  94395-4 0  9999,2 53965  53.2168 223.9440 0001173  94.4105 265.7021 15.08839170 44120,6917.883,95.438,540.559,538.936,0.0
53965.0,STARLINK-4578,PAYLOAD,2023-07-24 11:44:12,15.08842266,0.0001073,53.2156,210.2627,90.0483,270.0633,3.4123e-05,2.55e-06,0.0,0 STARLINK-4578,1 53965U 22125B   23205.48903608  .00000255  00000-0  34123-4 0  9999,2 53965  53.2156 210.2627 0001073  90.0483 270.0633 15.08842266 44514,6917.873,95.437,540.481,538.996,0.0
53965.0,STARLINK-4578,PAYLOAD,2023-07-25 11:34:59,15.0883914,0.00012,53.2159,205.8028,87.3077,272.8053,3.788e-05,3.15e-06,0.0,0 STARLINK-4578,1 53965U 22125B   23206.48263869  .00000315  00000-0  37880-4 0  9998,2 53965  53.2159 205.8028 0001200  87.3077 272.8053 15.08839140 44661,6917.883,95.438,540.578,538.918,0.0
53965.0,STARLINK-4578,PAYLOAD,2023-07-26 09:50:23,15.08839838,0.0001241,53.2153,201.6403,84.7314,275.382,5.3157e-05,5.58e-06,0.0,0 STARLINK-4578,1 53965U 22125B   23207.40999901  .00000558  00000-0  53157-4 0  9998,2 53965  53.2153 201.6403 0001241  84.7314 275.3820 15.08839838 44806,6917.881,95.438,540.604,538.887,0.0
53965.0,STARLINK-4578,PAYLOAD,2023-07-27 00:08:52,15.08835649,0.0001206,53.2157,198.9636,87.9605,272.1525,3.7035e-05,3.02e-06,0.0,0 STARLINK-4578,1 53965U 22125B   23208.00616276  .00000302  00000-0  37035-4 0  9990,2 53965  53.2157 198.9636 0001206  87.9605 272.1525 15.08835649 44965,6917.894,95.438,540.593,538.924,0.0
53965.0,STARLINK-4578,PAYLOAD,2023-07-27 11:16:34,15.08811308,0.0001324,53.2159,196.8821,96.9355,263.1787,0.00045444,6.946e-05,0.0,0 STARLINK-4578,1 53965U 22125B   23208.46984511  .00006946  00000-0  45444-3 0  9992,2 53965  53.2159 196.8821 0001324  96.9355 263.1787 15.08811308 44969,6917.968,95.439,540.749,538.917,0.0
53965.0,STARLINK-4578,PAYLOAD,2023-07-27 16:02:44,15.08831619,0.0001329,53.2173,195.9888,85.1581,274.9563,-9.6759e-06,-4.42e-06,0.0,0 STARLINK-4578,1 53965U 22125B   23208.66856787 -.00000442  00000-0 -96759-5 0  9991,2 53965  53.2173 195.9888 0001329  85.1581 274.9563 15.08831619 44996,6917.906,95.438,540.69,538.852,0.0
53965.0,STARLINK-4578,PAYLOAD,2023-07-28 09:32:00,15.0881237,0.0001084,53.2162,192.7191,84.0438,276.0678,-0.00018179,-3.178e-05,0.0,0 STARLINK-4578,1 53965U 22125B   23209.39722860 -.00003178  00000-0 -18179-3 0  9993,2 53965  53.2162 192.7191 0001084  84.0438 276.0678 15.08812370 45177,6917.965,95.439,540.58,539.08,0.0
53965.0,STARLINK-4578,PAYLOAD,2023-07-28 22:15:05,15.088172,8.36e-05,53.2166,190.3381,88.9651,271.1437,-8.6085e-05,-1.657e-05,0.0,0 STARLINK-4578,1 53965U 22125B   23209.92714967 -.00001657  00000-0 -86085-4 0  9993,2 53965  53.2166 190.3381 0000836  88.9651 271.1437 15.08817200 45255,6917.95,95.439,540.393,539.237,0.0
53965.0,STARLINK-4578,PAYLOAD,2023-07-29 07:47:24,15.08828491,0.000118,53.2161,188.5551,87.6831,272.4296,-1.984e-05,-6.03e-06,0.0,0 STARLINK-4578,1 53965U 22125B   23210.32458524 -.00000603  00000-0 -19840-4 0  9998,2 53965  53.2161 188.5551 0001180  87.6831 272.4296 15.08828491 45315,6917.916,95.438,540.597,538.964,0.0
53965.0,STARLINK-4578,PAYLOAD,2023-07-29 15:44:19,15.08836072,0.000111,53.2163,187.0682,87.7941,272.3178,8.1645e-05,1.012e-05,0.0,0 STARLINK-4578,1 53965U 22125B   23210.65578029  .00001012  00000-0  81645-4 0  9992,2 53965  53.2163 187.0682 0001110  87.7941 272.3178 15.08836072 45369,6917.892,95.438,540.525,538.99,0.0
53965.0,STARLINK-4578,PAYLOAD,2023-07-30 10:48:56,15.08851928,0.0001033,53.215,183.4995,81.7004,278.4106,0.00047915,7.348e-05,0.0,0 STARLINK-4578,1 53965U 22125B   23211.45065896  .00007348  00000-0  47915-3 0  9993,2 53965  53.2150 183.4995 0001033  81.7004 278.4106 15.08851928 45488,6917.844,95.437,540.424,538.994,0.0
53965.0,STARLINK-4578,PAYLOAD,2023-08-01 02:33:34,15.08853866,0.0001166,53.2151,176.0654,103.656,256.4562,0.00011838,1.597e-05,0.0,0 STARLINK-4578,1 53965U 22125B   23213.10664788  .00001597  00000-0  11838-3 0  9997,2 53965  53.2151 176.0654 0001166 103.6560 256.4562 15.08853866 45730,6917.838,95.437,540.51,538.896,0.0
53965.0,STARLINK-4578,PAYLOAD,2023-08-01 04:08:57,15.08847848,0.000108,53.215,175.7687,75.2909,284.8202,-1.4256e-05,-5.15e-06,0.0,0 STARLINK-4578,1 53965U 22125B   23213.17288968 -.00000515  00000-0 -14256-4 0  9995,2 53965  53.2150 175.7687 0001080  75.2909 284.8202 15.08847848 45747,6917.856,95.437,540.469,538.974,0.0
53965.0,STARLINK-4578,PAYLOAD,2023-08-02 07:10:29,15.0886663,0.0001277,53.2159,170.714,73.6079,286.5053,-0.00038875,-6.474e-05,0.0,0 STARLINK-4578,1 53965U 22125B   23214.29895743 -.00006474  00000-0 -38875-3 0  9996,2 53965  53.2159 170.7140 0001277  73.6079 286.5053 15.08866630 45915,6917.799,95.436,540.547,538.781,0.0
53965.0,STARLINK-4578,PAYLOAD,2023-08-03 02:15:08,15.08843125,0.0001248,53.2165,167.148,85.1192,274.9943,0.00014297,1.988e-05,0.0,0 STARLINK-4578,1 53965U 22125B   23215.09384982  .00001988  00000-0  14297-3 0  9998,2 53965  53.2165 167.1480 0001248  85.1192 274.9943 15.08843125 46038,6917.871,95.437,540.599,538.872,0.0
53965.0,STARLINK-4578,PAYLOAD,2023-08-04 02:05:56,15.08831339,0.0001031,53.2161,162.6874,74.0931,286.0174,-6.8189e-05,-1.373e-05,0.0,0 STARLINK-4578,1 53965U 22125B   23216.08745783 -.00001373  00000-0 -68189-4 0  9998,2 53965  53.2161 162.6874 0001031  74.0931 286.0174 15.08831339 46189,6917.907,95.438,540.485,539.059,0.0
53965.0,STARLINK-4578,PAYLOAD,2023-08-05 01:56:43,15.08840478,0.0001295,53.2173,158.2257,92.8854,267.2286,6.1993e-05,6.99e-06,0.0,0 STARLINK-4578,1 53965U 22125B   23217.08105804  .00000699  00000-0  61993-4 0  9997,2 53965  53.2173 158.2257 0001295  92.8854 267.2286 15.08840478 46338,6917.879,95.438,540.64,538.848,0.0
53965.0,STARLINK-4578,PAYLOAD,2023-08-05 05:07:28,15.08853532,0.000149,53.2172,157.631,114.901,245.2137,2.8889e-05,1.72e-06,0.0,0 STARLINK-4578,1 53965U 22125B   23217.21352960  .00000172  00000-0  28889-4 0  9992,2 53965  53.2172 157.6310 0001490 114.9010 245.2137 15.08853532 46355,6917.839,95.437,540.735,538.673,0.0
53965.0,STARLINK-4578,PAYLOAD,2023-08-06 01:47:29,15.08854145,0.0001304,53.2171,153.7664,101.489,258.6249,0.00033856,5.106e-05,0.0,0 STARLINK-4578,1 53965U 22125B   23218.07464897  .00005106  00000-0  33856-3 0  9991,2 53965  53.2171 153.7664 0001304 101.4890 258.6249 15.08854145 46481,6917.837,95.437,540.604,538.8,0.0
53965.0,STARLINK-4578,PAYLOAD,2023-08-06 12:55:12,15.08832573,0.0001709,53.2169,151.6848,80.9978,279.1207,-0.00011611,-2.135e-05,0.0,0 STARLINK-4578,1 53965U 22125B   23218.53833885 -.00002135  00000-0 -11611-3 0  9995,2 53965  53.2169 151.6848 0001709  80.9978 279.1207 15.08832573 46557,6917.903,95.438,540.95,538.586,0.0
53965.0,STARLINK-4578,PAYLOAD,2023-08-07 01:38:18,15.0882049,9.38e-05,53.2158,149.3037,84.4856,275.6243,-0.00033799,-5.66e-05,0.0,0 STARLINK-4578,1 53965U 22125B   23219.06826494 -.00005660  00000-0 -33799-3 0  9999,2 53965  53.2158 149.3037 0000938  84.4856 275.6243 15.08820490 46631,6917.94,95.439,540.454,539.156,0.0
53965.0,STARLINK-4578,PAYLOAD,2023-08-07 19:07:32,15.08839063,0.0001067,53.2154,146.033,80.2669,279.8444,0.00036817,5.576e-05,0.0,0 STARLINK-4578,1 53965U 22125B   23219.79690616  .00005576  00000-0  36817-3 0  9992,2 53965  53.2154 146.0330 0001067  80.2669 279.8444 15.08839063 46744,6917.883,95.438,540.486,539.01,0.0
53965.0,STARLINK-4578,PAYLOAD,2023-08-08 04:39:51,15.08866966,0.0001083,53.2151,144.2491,78.3245,281.7868,0.0016304,0.00025774,0.0,0 STARLINK-4578,1 53965U 22125B   23220.19434456  .00025774  00000-0  16304-2 0  9996,2 53965  53.2151 144.2491 0001083  78.3245 281.7868 15.08866966 46806,6917.798,95.436,540.412,538.914,0.0
53965.0,STARLINK-4578,PAYLOAD,2023-08-08 12:36:46,15.08860569,0.0001052,53.2153,142.7621,76.4547,283.6563,0.00080861,0.00012612,0.0,0 STARLINK-4578,1 53965U 22125B   23220.52554209  .00012612  00000-0  80861-3 0  9999,2 53965  53.2153 142.7621 0001052  76.4547 283.6563 15.08860569 46857,6917.818,95.436,540.41,538.955,0.0
53965.0,STARLINK-4578,PAYLOAD,2023-08-08 18:58:19,15.08859602,0.0001542,53.2147,141.5703,93.809,266.3078,0.00035298,5.337e-05,0.0,0 STARLINK-4578,1 53965U 22125B   23220.79050020  .00005337  00000-0  35298-3 0  9990,2 53965  53.2147 141.5703 0001542  93.8090 266.3078 15.08859602 46897,6917.82,95.436,540.752,538.619,0.0
53965.0,STARLINK-4578,PAYLOAD,2023-08-09 23:35:15,15.0884777,8.44e-05,53.2147,136.2191,111.3807,248.7275,0.00017976,2.575e-05,0.0,0 STARLINK-4578,1 53965U 22125B   23221.98281607  .00002575  00000-0  17976-3 0  9993,2 53965  53.2147 136.2191 0000844 111.3807 248.7275 15.08847770 47072,6917.857,95.437,540.306,539.138,0.0
